[{"OBJECT_NAME":"STARLINK-5769","OBJECT_ID":"2023-020S","EPOCH":"2026-03-09T03:37:17.065344","MEAN_MOTION":15.02534687,"ECCENTRICITY":0.00018039,"INCLINATION":43.0038,"RA_OF_ASC_NODE":355.0025,"ARG_OF_PERICENTER":269.5045,"MEAN_ANOMALY":90.559,"EPHEMERIS_TYPE":0,"CLASSIFICATION_TYPE":"U","NORAD_CAT_ID":55585,"ELEMENT_SET_NO":999,"REV_AT_EPOCH":16898,"BSTAR":-3.439795e-6,"MEAN_MOTION_DOT":-2.5e-6,"MEAN_MOTION_DDOT":0},{"OBJECT_NAME":"NOAA 16 DEB","OBJECT_ID":"2000-055BZ","EPOCH":"2026-03-09T09:57:46.840608","MEAN_MOTION":15.04968987,"ECCENTRICITY":0.00133628,"INCLINATION":98.8453,"RA_OF_ASC_NODE":286.076,"ARG_OF_PERICENTER":194.204,"MEAN_ANOMALY":165.8809,"EPHEMERIS_TYPE":0,"CLASSIFICATION_TYPE":"U","NORAD_CAT_ID":41142,"ELEMENT_SET_NO":999,"REV_AT_EPOCH":53866,"BSTAR":0.0051237154,"MEAN_MOTION_DOT":0.00073426,"MEAN_MOTION_DDOT":0}]
